25286,IRIDIUM 63,1998,100.3,-1.0,-,86.4,Inactive,0,LEO,Kazakhstan,USA,Unknown,Unknown,Unknown,1 25286U 98021B   24108.46654491  .00001202  00000+0  40998-3 0  9994,2 25286  86.3951 260.4431 0001986  97.3413 262.8009 14.35683861362742,14.35683861,0.0001986,LEO
25319,IRIDIUM 69,1998,100.01,-1.0,-,86.39,Inactive,0,LEO,PRC,USA,Unknown,Unknown,Unknown,1 25319U 98026A   24108.50457594  .00001464  00000+0  46009-3 0  9995,2 25319  86.3929 275.0084 0002683  35.2712 324.8664 14.39890244361786,14.39890244,0.0002683,LEO
25320,IRIDIUM 71,1998,99.99,-1.0,-,86.39,Inactive,0,LEO,PRC,USA,Unknown,Unknown,Unknown,1 25320U 98026B   24108.51794665  .00001354  00000+0  42219-3 0  9998,2 25320  86.3931 269.7721 0003964  71.2772 288.8857 14.40213835362307,14.40213835,0.0003964,LEO
25344,IRIDIUM 73,1998,99.28,-1.0,-,86.45,Inactive,0,LEO,USA,USA,Unknown,Unknown,Unknown,1 25344U 98032C   24108.38721568  .00001940  00000+0  49160-3 0  9991,2 25344  86.4454 227.3379 0002083  77.8323 282.3115 14.50423961368810,14.50423961,0.0002083,LEO
25467,IRIDIUM 82,1998,95.47,-1.0,-,86.38,Inactive,0,LEO,USA,USA,Unknown,Unknown,Unknown,1 25467U 98051A   24108.61193114  .00020955  00000+0  10919-2 0  9990,2 25467  86.3756 314.4911 0134206  83.2228 278.4258 15.08282232359359,15.08282232,0.0134206,LEO
25527,IRIDIUM 2,1998,91.91,-1.0,-,85.51,Inactive,0,LEO,USA,USA,Unknown,Unknown,Unknown,1 25527U 98066A   24108.60582998  .00144776  00000+0  13509-2 0  9990,2 25527  85.5092 342.5230 0004009 134.8207 225.3387 15.66859199398378,15.66859199,0.0004009,LEO
25273,IRIDIUM 57,1998,100.34,-1.0,-,86.39,Inactive,0,LEO,USA,USA,Unknown,Unknown,Unknown,1 25273U 98019B   24108.62890286  .00000784  00000+0  26773-3 0  9998,2 25273  86.3948 323.5055 0002150  88.1326 272.0117 14.35152703363731,14.35152703,0.000215,LEO
